GLOBALSTAR M043 [-]     
1 25874U 99041C   24019.78248947 -.00000044  00000+0  71291-3 0  9995
2 25874  51.9358 204.1004 0013443 151.5258 303.4141 11.25674245 64948
GLOBALSTAR M028 [-]     
1 25875U 99041D   24020.15385195 -.00000063  00000+0  24539-3 0  9990
2 25875  51.9630 285.7790 0064266  35.4559 325.0549 12.50548510125867
GLOBALSTAR M024 [-]     
1 25883U 99043A   24020.62980385 -.00000109  00000+0 -15718-2 0  9995
2 25883  52.0014  99.3720 0000767 352.4325 157.6641 11.10153986 57821
GLOBALSTAR M027 [-]     
1 25884U 99043B   24020.56538515 -.00000027  00000+0  13614-2 0  9994
2 25884  52.0188 162.9501 0020648 239.6805 120.1946 11.04367325 84490
GLOBALSTAR M054 [-]     
1 25885U 99043C   24020.31405582 -.00000050  00000+0  54287-3 0  9993
2 25885  52.0170  17.0443 0004381  10.1697  94.4609 11.39202924 60487
GLOBALSTAR M053 [-]     
1 25886U 99043D   24020.14694385 -.00000064  00000+0  13741-3 0  9991
2 25886  51.9997 296.0272 0003078 302.8193 206.1000 11.27652918 61450
GLOBALSTAR M058 [-]     
1 25907U 99049A   24020.37163187 -.00000054  00000+0  40930-3 0  9996
2 25907  51.9957  41.1645 0002242   8.1200 351.9670 11.93173162480202
GLOBALSTAR M050 [-]     
1 25908U 99049B   24020.57330646 -.00000094  00000+0 -61365-4 0  9996
2 25908  51.9992  86.6726 0009469  91.9822  56.1273 12.07426365 86144
GLOBALSTAR M033 [-]     
1 25909U 99049C   24020.28165043 -.00000006  00000+0  81931-3 0  9994
2 25909  51.9938 354.8044 0011450 296.8138  63.1538 12.20263406473004
GLOBALSTAR M055 [-]     
1 25910U 99049D   24020.18691042 -.00000085  00000+0  75152-4 0  9994
2 25910  52.0036  30.8286 0007198 144.0287 216.1050 12.29393721105069
GLOBALSTAR M057 [-]     
1 25943U 99058A   24020.31063783 -.00000123  00000+0 -26936-3 0  9999
2 25943  52.0016   6.5183 0002785  31.7707 328.3310 12.24778705103961
GLOBALSTAR M059 [-]     
1 25944U 99058B   24020.56569119 -.00000078  00000+0  10743-3 0  9998
2 25944  52.0002 156.6553 0001296  98.0292 343.2240 11.99960285512381
GLOBALSTAR M056 [-]     
1 25945U 99058C   24020.62562512 -.00000079  00000+0  95508-4 0  9990
2 25945  51.9942 171.6449 0000938 151.9952 291.1340 12.04775079100723
GLOBALSTAR M031 [-]     
1 25946U 99058D   24020.70245576  .00000015  00000+0  10704-2 0  9990
2 25946  51.9966  94.4852 0001699 192.0249 342.1300 12.16001247102312
GLOBALSTAR M039 [-]     
1 25961U 99062A   24020.19714755 -.00000057  00000+0  26152-3 0  9997
2 25961  51.9861  34.1661 0002561 288.2488  71.8100 12.62279506115307
GLOBALSTAR M034 [-]     
1 25962U 99062B   24020.61388317 -.00000034  00000+0  74553-3 0  9999
2 25962  51.9862 266.3541 0014223 147.7009 221.5421 11.79423095 77770
GLOBALSTAR M029 [-]     
1 25963U 99062C   24020.37765569 -.00000072  00000+0  18005-3 0  9993
2 25963  51.9818  45.6404 0002893 184.7689 277.1303 11.99872765107441
GLOBALSTAR M061 [-]     
1 25964U 99062D   24020.59041534 -.00000012  00000+0  11138-2 0  9990
2 25964  51.9798  83.6417 0006330  84.9164  63.9285 11.76757801 60710
GLOBALSTAR M063 [+]     
1 26081U 00008A   24020.30216966 -.00000059  00000+0  34416-3 0  9991
2 26081  51.9976  24.9350 0004618  51.0943  48.7215 11.86149957 96597
GLOBALSTAR M062 [-]     
1 26082U 00008B   24020.81561005 -.00000052  00000+0  32795-3 0  9996
2 26082  51.9829 165.4017 0008185  98.1792  53.3340 12.43426093 95259
GLOBALSTAR M060 [-]     
1 26083U 00008C   24020.28025351 -.00000112  00000+0 -20766-3 0  9990
2 26083  52.0033  54.2827 0003748 160.0510 280.6118 12.17622610 89761
GLOBALSTAR M064 [-]     
1 26084U 00008D   24020.71169285 -.00000090  00000+0 -89726-4 0  9991
2 26084  52.0027 128.7396 0002412 140.3311 219.7698 11.88514425106150
GLOBALSTAR M065 [+]     
1 31571U 07020A   24020.30343840 -.00000091  00000+0  69418-4 0  9991
2 31571  51.9920 350.2992 0009654 249.2103 258.1543 12.61961898768527
GLOBALSTAR M069 [+]     
1 31573U 07020C   24020.17478306 -.00000066  00000+0  20960-3 0  9994
2 31573  51.9970 306.7119 0001235  38.8896 107.6920 12.62264566769638
GLOBALSTAR M072 [+]     
1 31574U 07020D   24020.39987969 -.00000075  00000+0  15836-3 0  9995
2 31574  52.0097  41.8285 0000321 207.2708 261.5932 12.62269675767931
GLOBALSTAR M071 [P]     
1 31576U 07020F   24020.72447545 -.00000041  00000+0  35216-3 0  9992
2 31576  52.0084 310.0881 0001528  49.9609 315.2582 12.62265527769610
GLOBALSTAR M067 [+]     
1 32263U 07048A   24020.50526045 -.00000078  00000+0  14304-3 0  9990
2 32263  51.9729  98.9622 0000240  17.8971  89.3728 12.40637478745720
GLOBALSTAR M070 [+]     
1 32264U 07048B   24020.11030037 -.00000060  00000+0  24359-3 0  9991
2 32264  51.9735 254.5478 0001301  63.1628 102.4856 12.62285205748744
GLOBALSTAR M066 [+]     
1 32265U 07048C   24020.70154809 -.00000078  00000+0  14140-3 0  9997
2 32265  51.9675 114.7629 0001325 161.0639   3.4820 12.62279996752026
GLOBALSTAR M068 [-]     
1 32266U 07048D   24020.56662924 -.00000064  00000+0  21936-3 0  9990
2 32266  51.9893  67.8809 0001239 105.6088  59.0181 12.62776803752669
