OBJECT_NAME,OBJECT_ID,EPOCH,MEAN_MOTION,ECCENTRICITY,INCLINATION,RA_OF_ASC_NODE,ARG_OF_PERICENTER,MEAN_ANOMALY,EPHEMERIS_TYPE,CLASSIFICATION_TYPE,NORAD_CAT_ID,ELEMENT_SET_NO,REV_AT_EPOCH,BSTAR,MEAN_MOTION_DOT,MEAN_MOTION_DDOT
GLOBALSTAR M043 [-],1999-041C,2024-01-19T18:46:47.090208,11.25674245,.0013443,51.9358,204.1004,151.5258,303.4141,0,U,25874,999,6494,.71291E-3,-.44E-6,0
GLOBALSTAR M028 [-],1999-041D,2024-01-20T03:41:32.808480,12.50548510,.0064266,51.9630,285.7790,35.4559,325.0549,0,U,25875,999,12586,.24539E-3,-.63E-6,0
GLOBALSTAR M024 [-],1999-043A,2024-01-20T15:06:55.052640,11.10153986,.0000767,52.0014,99.3720,352.4325,157.6641,0,U,25883,999,5782,-.15718E-2,-.109E-5,0
GLOBALSTAR M027 [-],1999-043B,2024-01-20T13:34:09.276960,11.04367325,.0020648,52.0188,162.9501,239.6805,120.1946,0,U,25884,999,8449,.13614E-2,-.27E-6,0
GLOBALSTAR M054 [-],1999-043C,2024-01-20T07:32:14.422848,11.39202924,.0004381,52.0170,17.0443,10.1697,94.4609,0,U,25885,999,6048,.54287E-3,-.5E-6,0
GLOBALSTAR M053 [-],1999-043D,2024-01-20T03:31:35.948640,11.27652918,.0003078,51.9997,296.0272,302.8193,206.1000,0,U,25886,999,6145,.13741E-3,-.64E-6,0
GLOBALSTAR M058 [-],1999-049A,2024-01-20T08:55:08.993568,11.93173162,.0002242,51.9957,41.1645,8.1200,351.9670,0,U,25907,999,48020,.4093E-3,-.54E-6,0
GLOBALSTAR M050 [-],1999-049B,2024-01-20T13:45:33.678144,12.07426365,.0009469,51.9992,86.6726,91.9822,56.1273,0,U,25908,999,8614,-.61365E-4,-.94E-6,0
GLOBALSTAR M033 [-],1999-049C,2024-01-20T06:45:34.597152,12.20263406,.001145,51.9938,354.8044,296.8138,63.1538,0,U,25909,999,47300,.81931E-3,-.6E-7,0
GLOBALSTAR M055 [-],1999-049D,2024-01-20T04:29:09.060288,12.29393721,.0007198,52.0036,30.8286,144.0287,216.1050,0,U,25910,999,10506,.75152E-4,-.85E-6,0
GLOBALSTAR M057 [-],1999-058A,2024-01-20T07:27:19.108512,12.24778705,.0002785,52.0016,6.5183,31.7707,328.3310,0,U,25943,999,10396,-.26936E-3,-.123E-5,0
GLOBALSTAR M059 [-],1999-058B,2024-01-20T13:34:35.718816,11.99960285,.0001296,52.0002,156.6553,98.0292,343.2240,0,U,25944,999,51238,.10743E-3,-.78E-6,0
GLOBALSTAR M056 [-],1999-058C,2024-01-20T15:00:54.010368,12.04775079,.0000938,51.9942,171.6449,151.9952,291.1340,0,U,25945,999,10072,.95508E-4,-.79E-6,0
GLOBALSTAR M031 [-],1999-058D,2024-01-20T16:51:32.177664,12.16001247,.0001699,51.9966,94.4852,192.0249,342.1300,0,U,25946,999,10231,.10704E-2,.15E-6,0
GLOBALSTAR M039 [-],1999-062A,2024-01-20T04:43:53.548320,12.62279506,.0002561,51.9861,34.1661,288.2488,71.8100,0,U,25961,999,11530,.26152E-3,-.57E-6,0
GLOBALSTAR M034 [-],1999-062B,2024-01-20T14:43:59.505888,11.79423095,.0014223,51.9862,266.3541,147.7009,221.5421,0,U,25962,999,7777,.74553E-3,-.34E-6,0
GLOBALSTAR M029 [-],1999-062C,2024-01-20T09:03:49.451616,11.99872765,.0002893,51.9818,45.6404,184.7689,277.1303,0,U,25963,999,10744,.18005E-3,-.72E-6,0
GLOBALSTAR M061 [-],1999-062D,2024-01-20T14:10:11.885376,11.76757801,.000633,51.9798,83.6417,84.9164,63.9285,0,U,25964,999,6071,.11138E-2,-.12E-6,0
GLOBALSTAR M063 [+],2000-008A,2024-01-20T07:15:07.458624,11.86149957,.0004618,51.9976,24.9350,51.0943,48.7215,0,U,26081,999,9659,.34416E-3,-.59E-6,0
GLOBALSTAR M062 [-],2000-008B,2024-01-20T19:34:28.708320,12.43426093,.0008185,51.9829,165.4017,98.1792,53.3340,0,U,26082,999,9525,.32795E-3,-.52E-6,0
GLOBALSTAR M060 [-],2000-008C,2024-01-20T06:43:33.903264,12.17622610,.0003748,52.0033,54.2827,160.0510,280.6118,0,U,26083,999,8976,-.20766E-3,-.112E-5,0
GLOBALSTAR M064 [-],2000-008D,2024-01-20T17:04:50.262240,11.88514425,.0002412,52.0027,128.7396,140.3311,219.7698,0,U,26084,999,10615,-.89726E-4,-.9E-6,0
GLOBALSTAR M065 [+],2007-020A,2024-01-20T07:16:57.077760,12.61961898,.0009654,51.9920,350.2992,249.2103,258.1543,0,U,31571,999,76852,.69418E-4,-.91E-6,0
GLOBALSTAR M069 [+],2007-020C,2024-01-20T04:11:41.256384,12.62264566,.0001235,51.9970,306.7119,38.8896,107.6920,0,U,31573,999,76963,.2096E-3,-.66E-6,0
GLOBALSTAR M072 [+],2007-020D,2024-01-20T09:35:49.605216,12.62269675,.0000321,52.0097,41.8285,207.2708,261.5932,0,U,31574,999,76793,.15836E-3,-.75E-6,0
GLOBALSTAR M071 [P],2007-020F,2024-01-20T17:23:14.678880,12.62265527,.0001528,52.0084,310.0881,49.9609,315.2582,0,U,31576,999,76961,.35216E-3,-.41E-6,0
GLOBALSTAR M067 [+],2007-048A,2024-01-20T12:07:34.502880,12.40637478,.000024,51.9729,98.9622,17.8971,89.3728,0,U,32263,999,74572,.14304E-3,-.78E-6,0
GLOBALSTAR M070 [+],2007-048B,2024-01-20T02:38:49.951968,12.62285205,.0001301,51.9735,254.5478,63.1628,102.4856,0,U,32264,999,74874,.24359E-3,-.6E-6,0
GLOBALSTAR M066 [+],2007-048C,2024-01-20T16:50:13.754976,12.62279996,.0001325,51.9675,114.7629,161.0639,3.4820,0,U,32265,999,75202,.1414E-3,-.78E-6,0
GLOBALSTAR M068 [-],2007-048D,2024-01-20T13:35:56.766336,12.62776803,.0001239,51.9893,67.8809,105.6088,59.0181,0,U,32266,999,75266,.21936E-3,-.64E-6,0
